[
    {
        "Altitude(m)": 604234.5890099076,
        "Argument of Periapsis(deg)": 0.0,
        "Eccentricity": 0.0,
        "Inclination(deg)": 60.0,
        "Latitude(deg)": 14.117120456601459,
        "Longitude(deg)": -73.27267517701296,
        "Mean Anomaly(deg)": -196.36359999999996,
        "RAAN(deg)": 215.0,
        "Satellite Name": "Test1 956",
        "Satellite Number": 956,
        "Semi-Major Axis(m)": 6980739.136638005,
        "Time(s)": 0
    },
    {
        "Altitude(m)": 604223.4182944436,
        "Argument of Periapsis(deg)": 0.00010418945913296404,
        "Eccentricity": 0.0,
        "Inclination(deg)": 60.0,
        "Latitude(deg)": 13.582256871140943,
        "Longitude(deg)": -72.98576603996044,
        "Mean Anomaly(deg)": -195.7434938545382,
        "RAAN(deg)": 214.99957995086024,
        "Satellite Name": "Test1 956",
        "Satellite Number": 956,
        "Semi-Major Axis(m)": 6980739.136638005,
        "Time(s)": 10
    }
]